[{"OBJECT_NAME":"TYVAK-0172","OBJECT_ID":"2020-059C","EPOCH":"2026-03-09T15:00:33.219936","MEAN_MOTION":15.70916107,"ECCENTRICITY":0.0003543,"INCLINATION":97.7214,"RA_OF_ASC_NODE":311.0561,"ARG_OF_PERICENTER":67.1132,"MEAN_ANOMALY":293.0503,"EPHEMERIS_TYPE":0,"CLASSIFICATION_TYPE":"U","NORAD_CAT_ID":46267,"ELEMENT_SET_NO":999,"REV_AT_EPOCH":30311,"BSTAR":0.0021652,"MEAN_MOTION_DOT":0.00278441,"MEAN_MOTION_DDOT":0},{"OBJECT_NAME":"STARLINK-11689 [DTC]","OBJECT_ID":"2025-119J","EPOCH":"2026-03-09T10:15:48.442464","MEAN_MOTION":15.70969714,"ECCENTRICITY":0.00012735,"INCLINATION":42.999,"RA_OF_ASC_NODE":210.6792,"ARG_OF_PERICENTER":230.0375,"MEAN_ANOMALY":130.0381,"EPHEMERIS_TYPE":0,"CLASSIFICATION_TYPE":"U","NORAD_CAT_ID":64241,"ELEMENT_SET_NO":999,"REV_AT_EPOCH":4520,"BSTAR":0.0016928391,"MEAN_MOTION_DOT":0.00223936,"MEAN_MOTION_DDOT":0}]
