TYVAK-0172              
1 46267U 20059C   26068.62538449  .00278441  00000+0  21652-2 0  9997
2 46267  97.7214 311.0561 0003543  67.1132 293.0503 15.70916107303116
STARLINK-11689 [DTC]    
1 64241U 25119J   26068.42764401  .00223936  00000+0  16928-2 0  9997
2 64241  42.9990 210.6792 0001273 230.0375 130.0381 15.70969714 45208
